NORAD_CAT_ID,OBJECT_NAME,OBJECT_TYPE,EPOCH,MEAN_MOTION,ECCENTRICITY,INCLINATION,RA_OF_ASC_NODE,ARG_OF_PERICENTER,MEAN_ANOMALY,BSTAR,MEAN_MOTION_DOT,MEAN_MOTION_DDOT,TLE_LINE0,TLE_LINE1,TLE_LINE2,SEMIMAJOR_AXIS,PERIOD,APOGEE,PERIGEE,DECAYED
55940.0,STARLINK-5864,PAYLOAD,2023-07-02 23:45:33,15.51222721,0.0003712,69.9971,240.2299,271.1303,88.9458,4.4421e-05,2.445e-05,0.0,0 STARLINK-5864,1 55940U 23037AC  23183.98996780  .00002445  00000-0  44421-4 0  9995,2 55940  69.9971 240.2299 0003712 271.1303  88.9458 15.51222721 17349,6791.292,92.83,415.678,410.636,0.0
55940.0,STARLINK-5864,PAYLOAD,2023-07-04 06:45:49,15.48705024,0.0006012,69.9956,236.7097,100.6747,259.5115,-0.0059989,-0.0031045,0.0,0 STARLINK-5864,1 55940U 23037AC  23185.28181952 -.00310450  00000-0 -59989-2 0  9990,2 55940  69.9956 236.7097 0006012 100.6747 259.5115 15.48705024 17548,6798.65,92.981,424.603,416.428,0.0
55940.0,STARLINK-5864,PAYLOAD,2023-07-04 22:00:01,15.49267842,0.0003395,69.9988,234.9667,268.4291,44.6285,-0.016954,-0.00848924,0.0,0 STARLINK-5864,1 55940U 23037AC  23185.91668981 -.00848924  00000-0 -16954-1 0  9998,2 55940  69.9988 234.9667 0003395 268.4291  44.6285 15.49267842 17648,6797.004,92.947,421.176,416.561,0.0
55940.0,STARLINK-5864,PAYLOAD,2023-07-05 14:00:01,15.47990345,0.0003365,69.9986,233.151,276.8042,151.887,-0.018587,-0.00886188,0.0,0 STARLINK-5864,1 55940U 23037AC  23186.58335648 -.00886188  00000-0 -18587-1 0  9991,2 55940  69.9986 233.1510 0003365 276.8042 151.8870 15.47990345 17749,6800.743,93.024,424.896,420.319,0.0
55940.0,STARLINK-5864,PAYLOAD,2023-07-06 06:00:00,15.46710854,0.0003346,69.9989,231.3393,270.1292,271.0093,-0.020694,-0.0095165,0.0,0 STARLINK-5864,1 55940U 23037AC  23187.25001157 -.00951650  00000-0 -20694-1 0  9990,2 55940  69.9989 231.3393 0003346 270.1292 271.0093 15.46710854 17841,6804.493,93.101,428.634,424.081,0.0
55940.0,STARLINK-5864,PAYLOAD,2023-07-06 22:00:01,15.45350279,0.0003539,69.9987,229.5306,268.8871,21.714,-0.019212,-0.00840157,0.0,0 STARLINK-5864,1 55940U 23037AC  23187.91668981 -.00840157  00000-0 -19212-1 0  9990,2 55940  69.9987 229.5306 0003539 268.8871  21.7140 15.45350279 17958,6808.486,93.183,432.761,427.942,0.0
55940.0,STARLINK-5864,PAYLOAD,2023-07-07 14:00:01,15.44073333,0.0003715,69.9987,227.7255,275.8624,120.9206,-0.021207,-0.00895568,0.0,0 STARLINK-5864,1 55940U 23037AC  23188.58334491 -.00895568  00000-0 -21207-1 0  9993,2 55940  69.9987 227.7255 0003715 275.8624 120.9206 15.44073333 18050,6812.239,93.26,436.635,431.574,0.0
55940.0,STARLINK-5864,PAYLOAD,2023-07-08 06:00:00,15.42794951,0.0003508,69.9992,225.9238,270.709,229.1982,-0.023639,-0.00950975,0.0,0 STARLINK-5864,1 55940U 23037AC  23189.25001157 -.00950975  00000-0 -23639-1 0  9993,2 55940  69.9992 225.9238 0003508 270.7090 229.1982 15.42794951 18156,6816.002,93.337,440.258,435.476,0.0
55940.0,STARLINK-5864,PAYLOAD,2023-07-08 22:00:00,15.41436981,0.0003404,69.9992,224.1259,267.0609,332.855,-0.021894,-0.00849543,0.0,0 STARLINK-5864,1 55940U 23037AC  23189.91667824 -.00849543  00000-0 -21894-1 0  9994,2 55940  69.9992 224.1259 0003404 267.0609 332.8550 15.41436981 18260,6820.004,93.419,444.191,439.548,0.0
55940.0,STARLINK-5864,PAYLOAD,2023-07-09 06:00:00,15.40833224,0.000351,69.9993,223.2284,268.8798,19.8516,-0.025059,-0.00944551,0.0,0 STARLINK-5864,1 55940U 23037AC  23190.25001157 -.00944551  00000-0 -25059-1 0  9996,2 55940  69.9993 223.2284 0003510 268.8798  19.8516 15.40833224 18315,6821.786,93.456,446.045,441.256,0.0
55940.0,STARLINK-5864,PAYLOAD,2023-07-09 22:00:00,15.39473877,0.000348,69.9994,221.4359,269.2732,114.7742,-0.023019,-0.00837829,0.0,0 STARLINK-5864,1 55940U 23037AC  23190.91667824 -.00837829  00000-0 -23019-1 0  9991,2 55940  69.9994 221.4359 0003480 269.2732 114.7742 15.39473877 18417,6825.801,93.538,450.041,445.291,0.0
55940.0,STARLINK-5864,PAYLOAD,2023-07-10 06:00:00,15.38873104,0.0003446,69.9996,220.5412,271.5443,158.9719,-0.026659,-0.00942018,0.0,0 STARLINK-5864,1 55940U 23037AC  23191.25001157 -.00942018  00000-0 -26659-1 0  9990,2 55940  69.9996 220.5412 0003446 271.5443 158.9719 15.38873104 18461,6827.577,93.575,451.795,447.09,0.0
55940.0,STARLINK-5864,PAYLOAD,2023-07-10 22:00:00,15.37519135,0.0003249,69.9994,218.7538,269.2394,251.8955,-0.024542,-0.00837841,0.0,0 STARLINK-5864,1 55940U 23037AC  23191.91667824 -.00837841  00000-0 -24542-1 0  9998,2 55940  69.9994 218.7538 0003249 269.2394 251.8955 15.37519135 18563,6831.585,93.657,455.67,451.231,0.0
55940.0,STARLINK-5864,PAYLOAD,2023-07-11 06:00:00,15.36906504,0.0003236,69.9998,217.8616,270.331,294.931,-0.02789,-0.00925648,0.0,0 STARLINK-5864,1 55940U 23037AC  23192.25001157 -.00925648  00000-0 -27890-1 0  9999,2 55940  69.9998 217.8616 0003236 270.3310 294.9310 15.36906504 18619,6833.401,93.695,457.477,453.054,0.0
55940.0,STARLINK-5864,PAYLOAD,2023-07-12 14:00:01,15.34318851,0.0003296,69.9992,214.3011,274.3443,99.6715,-0.03101,-0.00945289,0.0,0 STARLINK-5864,1 55940U 23037AC  23193.58335648 -.00945289  00000-0 -31010-1 0  9993,2 55940  69.9992 214.3011 0003296 274.3443  99.6715 15.34318851 18823,6841.081,93.853,465.201,460.692,0.0
55940.0,STARLINK-5864,PAYLOAD,2023-07-13 18:00:00,15.32001463,0.0003157,69.9989,211.1975,269.2771,62.0383,-0.031711,-0.00902019,0.0,0 STARLINK-5864,1 55940U 23037AC  23194.75001157 -.00902019  00000-0 -31711-1 0  9990,2 55940  69.9989 211.1975 0003157 269.2771  62.0383 15.32001463 19008,6847.978,93.995,472.005,467.682,0.0
55940.0,STARLINK-5864,PAYLOAD,2023-07-14 14:00:01,15.30408401,0.0003042,69.9983,208.9874,271.9593,331.5792,-0.035391,-0.00965328,0.0,0 STARLINK-5864,1 55940U 23037AC  23195.58334491 -.00965328  00000-0 -35391-1 0  9992,2 55940  69.9983 208.9874 0003042 271.9593 331.5792 15.30408401 19132,6852.73,94.093,476.679,472.51,0.0
55940.0,STARLINK-5864,PAYLOAD,2023-07-15 06:00:02,15.29059133,0.0003222,69.9984,207.2233,270.0705,43.823,-0.034266,-0.00890426,0.0,0 STARLINK-5864,1 55940U 23037AC  23196.25002315 -.00890426  00000-0 -34266-1 0  9990,2 55940  69.9984 207.2233 0003222 270.0705  43.8230 15.29059133 19232,6856.761,94.176,480.835,476.416,0.0
55940.0,STARLINK-5864,PAYLOAD,2023-07-15 22:00:00,15.27761171,0.0003279,69.9983,205.4627,267.9992,112.9613,-0.0351,-0.00877562,0.0,0 STARLINK-5864,1 55940U 23037AC  23196.91667824 -.00877562  00000-0 -35100-1 0  9999,2 55940  69.9983 205.4627 0003279 267.9992 112.9613 15.27761171 19337,6860.644,94.256,484.758,480.259,0.0
55940.0,STARLINK-5864,PAYLOAD,2023-07-16 14:00:01,15.26492177,0.0003113,69.998,203.7053,275.3443,169.6207,-0.039781,-0.00962381,0.0,0 STARLINK-5864,1 55940U 23037AC  23197.58334491 -.00962381  00000-0 -39781-1 0  9997,2 55940  69.9980 203.7053 0003113 275.3443 169.6207 15.26492177 19434,6864.445,94.334,488.447,484.173,0.0
55940.0,STARLINK-5864,PAYLOAD,2023-07-17 02:00:01,15.25524577,0.000321,69.9986,202.3897,266.8172,44.1007,-0.041539,-0.00974931,0.0,0 STARLINK-5864,1 55940U 23037AC  23198.08334491 -.00974931  00000-0 -41539-1 0  9991,2 55940  69.9986 202.3897 0003210 266.8172  44.1007 15.25524577 19516,6867.348,94.394,491.417,487.008,0.0
55940.0,STARLINK-5864,PAYLOAD,2023-07-17 14:00:01,15.24536586,0.0003014,69.9981,201.0758,273.5996,261.5806,-0.042345,-0.0096546,0.0,0 STARLINK-5864,1 55940U 23037AC  23198.58335648 -.00965460  00000-0 -42345-1 0  9994,2 55940  69.9981 201.0758 0003014 273.5996 261.5806 15.24536586 19585,6870.314,94.455,494.25,490.109,0.0
55940.0,STARLINK-5864,PAYLOAD,2023-07-18 06:00:00,15.23185717,0.0003073,69.9986,199.3272,270.5788,320.748,-0.040635,-0.00895057,0.0,0 STARLINK-5864,1 55940U 23037AC  23199.25001157 -.00895057  00000-0 -40635-1 0  9998,2 55940  69.9986 199.3272 0003073 270.5788 320.7480 15.23185717 19694,6874.376,94.539,498.353,494.128,0.0
55940.0,STARLINK-5864,PAYLOAD,2023-07-18 22:00:00,15.21905644,0.0003151,69.9986,197.5821,264.4879,19.882,-0.04312,-0.00913093,0.0,0 STARLINK-5864,1 55940U 23037AC  23199.91667824 -.00913093  00000-0 -43120-1 0  9993,2 55940  69.9986 197.5821 0003151 264.4879  19.8820 15.21905644 19796,6878.23,94.618,502.262,497.928,0.0
55940.0,STARLINK-5864,PAYLOAD,2023-07-19 14:00:01,15.20624418,0.0003196,69.9986,195.8404,271.3451,62.954,-0.047828,-0.00970667,0.0,0 STARLINK-5864,1 55940U 23037AC  23200.58334491 -.00970667  00000-0 -47828-1 0  9999,2 55940  69.9986 195.8404 0003196 271.3451  62.9540 15.20624418 19891,6882.093,94.698,506.157,501.758,0.0
55940.0,STARLINK-5864,PAYLOAD,2023-07-20 06:00:00,15.19274603,0.0003167,69.9992,194.1024,270.9928,110.1262,-0.045652,-0.00896257,0.0,0 STARLINK-5864,1 55940U 23037AC  23201.25001157 -.00896257  00000-0 -45652-1 0  9999,2 55940  69.9992 194.1024 0003167 270.9928 110.1262 15.19274603 19993,6886.169,94.782,510.215,505.853,0.0
55940.0,STARLINK-5864,PAYLOAD,2023-07-20 22:00:00,15.17997432,0.0003151,69.9992,192.3678,265.8929,158.8827,-0.048855,-0.00922283,0.0,0 STARLINK-5864,1 55940U 23037AC  23201.91667824 -.00922283  00000-0 -48855-1 0  9998,2 55940  69.9992 192.3678 0003151 265.8929 158.8827 15.17997432 20094,6890.031,94.862,514.067,509.725,0.0
55940.0,STARLINK-5864,PAYLOAD,2023-07-21 22:00:00,15.16046061,0.0003048,69.9996,189.7725,265.7022,218.7144,-0.052268,-0.00932155,0.0,0 STARLINK-5864,1 55940U 23037AC  23202.91667824 -.00932155  00000-0 -52268-1 0  9991,2 55940  69.9996 189.7725 0003048 265.7022 218.7144 15.16046061 20246,6895.942,94.984,519.909,515.705,0.0
55940.0,STARLINK-5864,PAYLOAD,2023-07-24 14:00:01,15.10826908,0.0003036,69.9996,182.8897,269.6935,339.3564,-0.061867,-0.00951042,0.0,0 STARLINK-5864,1 55940U 23037AC  23205.58334491 -.00951042  00000-0 -61867-1 0  9999,2 55940  69.9996 182.8897 0003036 269.6935 339.3564 15.10826908  2294,6911.814,95.312,535.777,531.58,0.0
55940.0,STARLINK-5864,PAYLOAD,2023-07-25 14:00:01,15.08866115,0.0003071,69.9996,180.3231,268.6062,14.3356,-0.064857,-0.00944956,0.0,0 STARLINK-5864,1 55940U 23037AC  23206.58335648 -.00944956  00000-0 -64857-1 0  9993,2 55940  69.9996 180.3231 0003071 268.6062  14.3356 15.08866115  2445,6917.801,95.436,541.79,537.541,0.0
